[{"OBJECT_NAME":"SDA_1684","OBJECT_ID":"2025-230W","EPOCH":"2026-03-09T22:42:30.839328","MEAN_MOTION":13.84530405,"ECCENTRICITY":0.00030032,"INCLINATION":81.3001,"RA_OF_ASC_NODE":303.7717,"ARG_OF_PERICENTER":64.2514,"MEAN_ANOMALY":295.8953,"EPHEMERIS_TYPE":0,"CLASSIFICATION_TYPE":"U","NORAD_CAT_ID":65994,"ELEMENT_SET_NO":999,"REV_AT_EPOCH":2007,"BSTAR":-0.026007307,"MEAN_MOTION_DOT":-0.00029027,"MEAN_MOTION_DDOT":0},{"OBJECT_NAME":"COSMOS 1375 DEB","OBJECT_ID":"1982-055AV","EPOCH":"2026-03-09T13:28:30.549216","MEAN_MOTION":13.80850198,"ECCENTRICITY":0.00528107,"INCLINATION":65.8311,"RA_OF_ASC_NODE":117.0385,"ARG_OF_PERICENTER":274.6587,"MEAN_ANOMALY":235.45,"EPHEMERIS_TYPE":0,"CLASSIFICATION_TYPE":"U","NORAD_CAT_ID":17803,"ELEMENT_SET_NO":999,"REV_AT_EPOCH":3013,"BSTAR":0.00033197645,"MEAN_MOTION_DOT":2.72e-6,"MEAN_MOTION_DDOT":0}]
